TERRASAR-X              
1 31698U 07026A   26063.59288471  .00002043  00000+0  10048-3 0  9997
2 31698  97.4462  72.7879 0001849  78.4476 281.6966 15.19148874 37342
WORLDVIEW-1 (WV-1)      
1 32060U 07041A   26063.77929043  .00011102  00000+0  45510-3 0  9993
2 32060  97.3832 185.0308 0002939 149.5978 210.5431 15.24429495 26971
YAOGAN-3                
1 32289U 07055A   26063.87499007  .00002600  00000+0  27314-3 0  9999
2 32289  97.8275  94.7534 0001689  86.0481 274.0930 14.90331836990323
COSMO-SKYMED 2          
1 32376U 07059A   26063.85727325  .00000792  00000+0  10598-3 0  9991
2 32376  97.8860 248.9633 0001311  83.3158 276.8204 14.82158704986541
RADARSAT-2              
1 32382U 07061A   26063.85116692  .00000138  00000+0  70275-4 0  9993
2 32382  98.5810  72.2597 0001196  86.0976 274.0343 14.29981890951049
CARTOSAT-2A             
1 32783U 08021A   26063.87041350  .00000589  00000+0  86245-4 0  9999
2 32783  97.7786 116.0772 0013298  90.4864 269.7872 14.79088487963383
HUANJING 1A (HJ-1A)     
1 33320U 08041A   26063.84699656  .00003238  00000+0  39645-3 0  9999
2 33320  97.6623  53.7761 0020494 118.6441 241.6837 14.83701072942930
HUANJING 1B (HJ-1B)     
1 33321U 08041B   26063.83827095  .00000893  00000+0  11471-3 0  9990
2 33321  97.6471  57.2442 0036676 163.4861 196.7557 14.83086091942947
GEOEYE 1                
1 33331U 08042A   26063.76821271  .00000786  00000+0  15631-3 0  9997
2 33331  98.1215 139.0194 0004292  41.5257 318.6272 14.64760214934863
THEOS                   
1 33396U 08049A   26063.83459969 -.00000140  00000+0 -45632-4 0  9995
2 33396  98.5715 124.4474 0001039  89.3165 270.8131 14.20115537903151
COSMO-SKYMED 3          
1 33412U 08054A   26063.87003934  .00007533  00000+0  51715-3 0  9990
2 33412  97.8423 280.6747 0014637 260.1265  99.8309 15.06197811941231
YAOGAN-4                
1 33446U 08061A   26063.38958534  .00002033  00000+0  25650-3 0  9995
2 33446  97.9245 357.7324 0015616  55.2251 305.0430 14.82959497930137
GOSAT (IBUKI)           
1 33492U 09002A   26063.20621588  .00000446  00000+0  87015-4 0  9999
2 33492  98.0769 175.6761 0001363  85.5243 274.6117 14.67547057916061
DEIMOS-1                
1 35681U 09041A   26063.86428608  .00000781  00000+0  12290-3 0  9998
2 35681  97.7241 225.6947 0002018 124.7810 235.3590 14.75105243891506
DUBAISAT-1              
1 35682U 09041B   26063.34918018  .00001829  00000+0  27990-3 0  9998
2 35682  97.9864 197.8731 0011363  52.2168 308.0068 14.74889310889648
OCEANSAT-2              
1 35931U 09051A   26063.82946020  .00000065  00000+0  70196-4 0  9991
2 35931  98.2272  61.1305 0017031 165.6642 194.5011 13.99636108864736
WORLDVIEW-2 (WV-2)      
1 35946U 09055A   26063.78626467  .00000240  00000+0  94040-4 0  9995
2 35946  98.4702 138.7217 0004786 158.0808 202.0584 14.37908297860648
