[{"OBJECT_NAME":"TERRASAR-X","OBJECT_ID":"2007-026A","EPOCH":"2026-03-04T14:13:45.238944","MEAN_MOTION":15.19148874,"ECCENTRICITY":0.0001849,"INCLINATION":97.4462,"RA_OF_ASC_NODE":72.7879,"ARG_OF_PERICENTER":78.4476,"MEAN_ANOMALY":281.6966,"EPHEMERIS_TYPE":0,"CLASSIFICATION_TYPE":"U","NORAD_CAT_ID":31698,"ELEMENT_SET_NO":999,"REV_AT_EPOCH":3734,"BSTAR":0.00010048,"MEAN_MOTION_DOT":2.043e-5,"MEAN_MOTION_DDOT":0},{"OBJECT_NAME":"WORLDVIEW-1 (WV-1)","OBJECT_ID":"2007-041A","EPOCH":"2026-03-04T18:42:10.693152","MEAN_MOTION":15.24429495,"ECCENTRICITY":0.0002939,"INCLINATION":97.3832,"RA_OF_ASC_NODE":185.0308,"ARG_OF_PERICENTER":149.5978,"MEAN_ANOMALY":210.5431,"EPHEMERIS_TYPE":0,"CLASSIFICATION_TYPE":"U","NORAD_CAT_ID":32060,"ELEMENT_SET_NO":999,"REV_AT_EPOCH":2697,"BSTAR":0.0004551,"MEAN_MOTION_DOT":0.00011102,"MEAN_MOTION_DDOT":0},{"OBJECT_NAME":"YAOGAN-3","OBJECT_ID":"2007-055A","EPOCH":"2026-03-04T20:59:59.142048","MEAN_MOTION":14.90331836,"ECCENTRICITY":0.0001689,"INCLINATION":97.8275,"RA_OF_ASC_NODE":94.7534,"ARG_OF_PERICENTER":86.0481,"MEAN_ANOMALY":274.093,"EPHEMERIS_TYPE":0,"CLASSIFICATION_TYPE":"U","NORAD_CAT_ID":32289,"ELEMENT_SET_NO":999,"REV_AT_EPOCH":99032,"BSTAR":0.00027314,"MEAN_MOTION_DOT":2.6e-5,"MEAN_MOTION_DDOT":0},{"OBJECT_NAME":"COSMO-SKYMED 2","OBJECT_ID":"2007-059A","EPOCH":"2026-03-04T20:34:28.408800","MEAN_MOTION":14.82158704,"ECCENTRICITY":0.0001311,"INCLINATION":97.886,"RA_OF_ASC_NODE":248.9633,"ARG_OF_PERICENTER":83.3158,"MEAN_ANOMALY":276.8204,"EPHEMERIS_TYPE":0,"CLASSIFICATION_TYPE":"U","NORAD_CAT_ID":32376,"ELEMENT_SET_NO":999,"REV_AT_EPOCH":98654,"BSTAR":0.00010598,"MEAN_MOTION_DOT":7.92e-6,"MEAN_MOTION_DDOT":0},{"OBJECT_NAME":"RADARSAT-2","OBJECT_ID":"2007-061A","EPOCH":"2026-03-04T20:25:40.821888","MEAN_MOTION":14.2998189,"ECCENTRICITY":0.0001196,"INCLINATION":98.581,"RA_OF_ASC_NODE":72.2597,"ARG_OF_PERICENTER":86.0976,"MEAN_ANOMALY":274.0343,"EPHEMERIS_TYPE":0,"CLASSIFICATION_TYPE":"U","NORAD_CAT_ID":32382,"ELEMENT_SET_NO":999,"REV_AT_EPOCH":95104,"BSTAR":7.0275e-5,"MEAN_MOTION_DOT":1.38e-6,"MEAN_MOTION_DDOT":0},{"OBJECT_NAME":"CARTOSAT-2A","OBJECT_ID":"2008-021A","EPOCH":"2026-03-04T20:53:23.726400","MEAN_MOTION":14.79088487,"ECCENTRICITY":0.0013298,"INCLINATION":97.7786,"RA_OF_ASC_NODE":116.0772,"ARG_OF_PERICENTER":90.4864,"MEAN_ANOMALY":269.7872,"EPHEMERIS_TYPE":0,"CLASSIFICATION_TYPE":"U","NORAD_CAT_ID":32783,"ELEMENT_SET_NO":999,"REV_AT_EPOCH":96338,"BSTAR":8.6245e-5,"MEAN_MOTION_DOT":5.89e-6,"MEAN_MOTION_DDOT":0},{"OBJECT_NAME":"HUANJING 1A (HJ-1A)","OBJECT_ID":"2008-041A","EPOCH":"2026-03-04T20:19:40.502784","MEAN_MOTION":14.83701072,"ECCENTRICITY":0.0020494,"INCLINATION":97.6623,"RA_OF_ASC_NODE":53.7761,"ARG_OF_PERICENTER":118.6441,"MEAN_ANOMALY":241.6837,"EPHEMERIS_TYPE":0,"CLASSIFICATION_TYPE":"U","NORAD_CAT_ID":33320,"ELEMENT_SET_NO":999,"REV_AT_EPOCH":94293,"BSTAR":0.00039645,"MEAN_MOTION_DOT":3.238e-5,"MEAN_MOTION_DDOT":0},{"OBJECT_NAME":"HUANJING 1B (HJ-1B)","OBJECT_ID":"2008-041B","EPOCH":"2026-03-04T20:07:06.610080","MEAN_MOTION":14.83086091,"ECCENTRICITY":0.0036676,"INCLINATION":97.6471,"RA_OF_ASC_NODE":57.2442,"ARG_OF_PERICENTER":163.4861,"MEAN_ANOMALY":196.7557,"EPHEMERIS_TYPE":0,"CLASSIFICATION_TYPE":"U","NORAD_CAT_ID":33321,"ELEMENT_SET_NO":999,"REV_AT_EPOCH":94294,"BSTAR":0.00011471,"MEAN_MOTION_DOT":8.93e-6,"MEAN_MOTION_DDOT":0},{"OBJECT_NAME":"GEOEYE 1","OBJECT_ID":"2008-042A","EPOCH":"2026-03-04T18:26:13.578144","MEAN_MOTION":14.64760214,"ECCENTRICITY":0.0004292,"INCLINATION":98.1215,"RA_OF_ASC_NODE":139.0194,"ARG_OF_PERICENTER":41.5257,"MEAN_ANOMALY":318.6272,"EPHEMERIS_TYPE":0,"CLASSIFICATION_TYPE":"U","NORAD_CAT_ID":33331,"ELEMENT_SET_NO":999,"REV_AT_EPOCH":93486,"BSTAR":0.00015631,"MEAN_MOTION_DOT":7.86e-6,"MEAN_MOTION_DDOT":0},{"OBJECT_NAME":"THEOS","OBJECT_ID":"2008-049A","EPOCH":"2026-03-04T20:01:49.413216","MEAN_MOTION":14.20115537,"ECCENTRICITY":0.0001039,"INCLINATION":98.5715,"RA_OF_ASC_NODE":124.4474,"ARG_OF_PERICENTER":89.3165,"MEAN_ANOMALY":270.8131,"EPHEMERIS_TYPE":0,"CLASSIFICATION_TYPE":"U","NORAD_CAT_ID":33396,"ELEMENT_SET_NO":999,"REV_AT_EPOCH":90315,"BSTAR":-4.5632e-5,"MEAN_MOTION_DOT":-1.4e-6,"MEAN_MOTION_DDOT":0},{"OBJECT_NAME":"COSMO-SKYMED 3","OBJECT_ID":"2008-054A","EPOCH":"2026-03-04T20:52:51.398976","MEAN_MOTION":15.06197811,"ECCENTRICITY":0.0014637,"INCLINATION":97.8423,"RA_OF_ASC_NODE":280.6747,"ARG_OF_PERICENTER":260.1265,"MEAN_ANOMALY":99.8309,"EPHEMERIS_TYPE":0,"CLASSIFICATION_TYPE":"U","NORAD_CAT_ID":33412,"ELEMENT_SET_NO":999,"REV_AT_EPOCH":94123,"BSTAR":0.00051715,"MEAN_MOTION_DOT":7.533e-5,"MEAN_MOTION_DDOT":0},{"OBJECT_NAME":"YAOGAN-4","OBJECT_ID":"2008-061A","EPOCH":"2026-03-04T09:21:00.173376","MEAN_MOTION":14.82959497,"ECCENTRICITY":0.0015616,"INCLINATION":97.9245,"RA_OF_ASC_NODE":357.7324,"ARG_OF_PERICENTER":55.2251,"MEAN_ANOMALY":305.043,"EPHEMERIS_TYPE":0,"CLASSIFICATION_TYPE":"U","NORAD_CAT_ID":33446,"ELEMENT_SET_NO":999,"REV_AT_EPOCH":93013,"BSTAR":0.00025649904,"MEAN_MOTION_DOT":2.033e-5,"MEAN_MOTION_DDOT":0},{"OBJECT_NAME":"GOSAT (IBUKI)","OBJECT_ID":"2009-002A","EPOCH":"2026-03-04T04:56:57.052032","MEAN_MOTION":14.67547057,"ECCENTRICITY":0.00013639,"INCLINATION":98.0769,"RA_OF_ASC_NODE":175.6761,"ARG_OF_PERICENTER":85.5243,"MEAN_ANOMALY":274.6117,"EPHEMERIS_TYPE":0,"CLASSIFICATION_TYPE":"U","NORAD_CAT_ID":33492,"ELEMENT_SET_NO":999,"REV_AT_EPOCH":91606,"BSTAR":8.7014865e-5,"MEAN_MOTION_DOT":4.46e-6,"MEAN_MOTION_DDOT":0},{"OBJECT_NAME":"DEIMOS-1","OBJECT_ID":"2009-041A","EPOCH":"2026-03-04T20:44:34.317312","MEAN_MOTION":14.75105243,"ECCENTRICITY":0.0002018,"INCLINATION":97.7241,"RA_OF_ASC_NODE":225.6947,"ARG_OF_PERICENTER":124.781,"MEAN_ANOMALY":235.359,"EPHEMERIS_TYPE":0,"CLASSIFICATION_TYPE":"U","NORAD_CAT_ID":35681,"ELEMENT_SET_NO":999,"REV_AT_EPOCH":89150,"BSTAR":0.0001229,"MEAN_MOTION_DOT":7.81e-6,"MEAN_MOTION_DDOT":0},{"OBJECT_NAME":"DUBAISAT-1","OBJECT_ID":"2009-041B","EPOCH":"2026-03-04T08:22:49.167552","MEAN_MOTION":14.7488931,"ECCENTRICITY":0.00113637,"INCLINATION":97.9864,"RA_OF_ASC_NODE":197.8731,"ARG_OF_PERICENTER":52.2168,"MEAN_ANOMALY":308.0068,"EPHEMERIS_TYPE":0,"CLASSIFICATION_TYPE":"U","NORAD_CAT_ID":35682,"ELEMENT_SET_NO":999,"REV_AT_EPOCH":88964,"BSTAR":0.000279896,"MEAN_MOTION_DOT":1.829e-5,"MEAN_MOTION_DDOT":0},{"OBJECT_NAME":"OCEANSAT-2","OBJECT_ID":"2009-051A","EPOCH":"2026-03-04T19:54:25.361280","MEAN_MOTION":13.99636108,"ECCENTRICITY":0.0017031,"INCLINATION":98.2272,"RA_OF_ASC_NODE":61.1305,"ARG_OF_PERICENTER":165.6642,"MEAN_ANOMALY":194.5011,"EPHEMERIS_TYPE":0,"CLASSIFICATION_TYPE":"U","NORAD_CAT_ID":35931,"ELEMENT_SET_NO":999,"REV_AT_EPOCH":86473,"BSTAR":7.0196e-5,"MEAN_MOTION_DOT":6.5e-7,"MEAN_MOTION_DDOT":0},{"OBJECT_NAME":"WORLDVIEW-2 (WV-2)","OBJECT_ID":"2009-055A","EPOCH":"2026-03-04T18:52:13.267488","MEAN_MOTION":14.37908297,"ECCENTRICITY":0.0004786,"INCLINATION":98.4702,"RA_OF_ASC_NODE":138.7217,"ARG_OF_PERICENTER":158.0808,"MEAN_ANOMALY":202.0584,"EPHEMERIS_TYPE":0,"CLASSIFICATION_TYPE":"U","NORAD_CAT_ID":35946,"ELEMENT_SET_NO":999,"REV_AT_EPOCH":86064,"BSTAR":9.404e-5,"MEAN_MOTION_DOT":2.4e-6,"MEAN_MOTION_DDOT":0}]
